1 45767U 20038AP  21142.51355269  .00000276  00000-0  37400-4 0  9991
2 45767  53.0554 162.4409 0000438  66.4816 293.6219 15.06389959 52379
